{
  "norad_id": 49440,
  "name": "STARLINK-3105",
  "history": [
    {
      "epoch": "2026-05-05T18:53:12.223392Z",
      "apogee_km": 540.6766035281707,
      "perigee_km": 538.7935587476859,
      "latitude_deg": -1.9480497013846237e-06,
      "longitude_deg": 165.84314317738557,
      "height_km": 540.6610942670213,
      "semi_major_axis_km": 6917.872081137928,
      "eccentricity": 0.0001361,
      "inclination_deg": 53.2178,
      "raan_deg": 312.801,
      "arg_perigee_deg": 91.842,
      "mean_anomaly_deg": 268.2728,
      "mean_motion_rev_day": 15.08842718
    },
    {
      "epoch": "2026-05-06T18:43:58.092672Z",
      "apogee_km": 539.9534168621813,
      "perigee_km": 539.4816191840519,
      "latitude_deg": -2.4689711738398212e-05,
      "longitude_deg": 162.71477697583077,
      "height_km": 540.4128715798972,
      "semi_major_axis_km": 6917.854518023117,
      "eccentricity": 3.41e-05,
      "inclination_deg": 53.2166,
      "raan_deg": 308.3431,
      "arg_perigee_deg": 31.1804,
      "mean_anomaly_deg": 328.9208,
      "mean_motion_rev_day": 15.08848464
    },
    {
      "epoch": "2026-05-07T18:34:46.367328Z",
      "apogee_km": 540.7536190023875,
      "perigee_km": 538.7723324493409,
      "latitude_deg": -5.289925433738087e-06,
      "longitude_deg": 159.56979255349364,
      "height_km": 540.7028746162215,
      "semi_major_axis_km": 6917.899975725864,
      "eccentricity": 0.0001432,
      "inclination_deg": 53.217,
      "raan_deg": 303.8786,
      "arg_perigee_deg": 92.5651,
      "mean_anomaly_deg": 267.5505,
      "mean_motion_rev_day": 15.08833592
    },
    {
      "epoch": "2026-05-08T18:25:33.551616Z",
      "apogee_km": 540.4455196424224,
      "perigee_km": 539.0328893214664,
      "latitude_deg": 2.639237552501245e-05,
      "longitude_deg": 156.43457347142103,
      "height_km": 540.5749829047827,
      "semi_major_axis_km": 6917.876204481944,
      "eccentricity": 0.0001021,
      "inclination_deg": 53.2162,
      "raan_deg": 299.4193,
      "arg_perigee_deg": 85.1054,
      "mean_anomaly_deg": 275.0055,
      "mean_motion_rev_day": 15.08841369
    },
    {
      "epoch": "2026-05-09T16:40:57.887616Z",
      "apogee_km": 540.5403694946417,
      "perigee_km": 539.014277594868,
      "latitude_deg": -3.529999070962886e-05,
      "longitude_deg": 177.50697292465944,
      "height_km": 540.6464796492677,
      "semi_major_axis_km": 6917.914323544755,
      "eccentricity": 0.0001103,
      "inclination_deg": 53.2176,
      "raan_deg": 295.2572,
      "arg_perigee_deg": 87.9778,
      "mean_anomaly_deg": 272.134,
      "mean_motion_rev_day": 15.08828898
    },
    {
      "epoch": "2026-05-10T19:42:31.366368Z",
      "apogee_km": 540.5233571797908,
      "perigee_km": 538.9931187531529,
      "latitude_deg": -6.213437131542539e-05,
      "longitude_deg": 125.95263974490803,
      "height_km": 540.6244889852532,
      "semi_major_axis_km": 6917.8952379664715,
      "eccentricity": 0.0001106,
      "inclination_deg": 53.218,
      "raan_deg": 290.2023,
      "arg_perigee_deg": 87.7622,
      "mean_anomaly_deg": 272.3496,
      "mean_motion_rev_day": 15.08835142
    },
    {
      "epoch": "2026-05-11T16:22:32.282112Z",
      "apogee_km": 540.5439038968389,
      "perigee_km": 538.9569405221846,
      "latitude_deg": -3.272080013359183e-05,
      "longitude_deg": 171.2337854674599,
      "height_km": 540.6067994562044,
      "semi_major_axis_km": 6917.887422209512,
      "eccentricity": 0.0001147,
      "inclination_deg": 53.2185,
      "raan_deg": 286.336,
      "arg_perigee_deg": 87.1289,
      "mean_anomaly_deg": 272.9834,
      "mean_motion_rev_day": 15.08837699
    },
    {
      "epoch": "2026-05-12T16:13:18.833088Z",
      "apogee_km": 540.5187088326575,
      "perigee_km": 538.949735639454,
      "latitude_deg": -6.623625110957249e-05,
      "longitude_deg": 168.10066718848228,
      "height_km": 540.5811769645935,
      "semi_major_axis_km": 6917.8712222360555,
      "eccentricity": 0.0001134,
      "inclination_deg": 53.2182,
      "raan_deg": 281.8762,
      "arg_perigee_deg": 86.4071,
      "mean_anomaly_deg": 273.705,
      "mean_motion_rev_day": 15.08842999
    }
  ]
}